{"type": "FeatureCollection", "features": [ {"type": "Feature", "properties": {"norad_id": 66337, "name": "STARLINK-34783", "group": "last-30-days", "lat": 42.46035580721114, "lon": 129.41938399598575, "alt_km": 438.4349225298847, "timestamp": "2025-12-05T07:38:17.625993+00:00", "meta": {"OBJECT_NAME": "STARLINK-34783", "OBJECT_ID": "2025-253U", "EPOCH": "2025-12-04T16:00:01.998720", "MEAN_MOTION": 15.40623589, "ECCENTRICITY": 0.0001496, "INCLINATION": 43.0004, "RA_OF_ASC_NODE": 32.276, "ARG_OF_PERICENTER": 286.7113, "MEAN_ANOMALY": 153.1997, "EPHEMERIS_TYPE": 0, "CLASSIFICATION_TYPE": "U", "NORAD_CAT_ID": 66337, "ELEMENT_SET_NO": 999, "REV_AT_EPOCH": 568, "BSTAR": 0.00051256, "MEAN_MOTION_DOT": 0.00021113, "MEAN_MOTION_DDOT": 0}, "tle": {"line1": "1 66337U 25253U   25338.66668980  .00021113  00000+0  51256-3 0  9991", "line2": "2 66337  43.0004  32.2760 0001496 286.7113 153.1997 15.40623589  5683"}}, "geometry": {"type": "Point", "coordinates": [129.41938399598575, 42.46035580721114]}}, {"type": "Feature", "properties": {"norad_id": 66338, "name": "STARLINK-35477", "group": "last-30-days", "lat": 37.39009898727366, "lon": 83.70244147317845, "alt_km": 436.84353167342033, "timestamp": "2025-12-05T07:38:17.626004+00:00", "meta": {"OBJECT_NAME": "STARLINK-35477", "OBJECT_ID": "2025-253V", "EPOCH": "2025-12-03T05:35:16.634688", "MEAN_MOTION": 15.40809844, "ECCENTRICITY": 5.96e-05, "INCLINATION": 43.0004, "RA_OF_ASC_NODE": 40.627, "ARG_OF_PERICENTER": 180.5282, "MEAN_ANOMALY": 179.5573, "EPHEMERIS_TYPE": 0, "CLASSIFICATION_TYPE": "U", "NORAD_CAT_ID": 66338, "ELEMENT_SET_NO": 999, "REV_AT_EPOCH": 545, "BSTAR": 0.0022359, "MEAN_MOTION_DOT": 0.00094607, "MEAN_MOTION_DDOT": 0}, "tle": {"line1": "1 66338U 25253V   25337.23283142  .00094607  00000+0  22359-2 0  9996", "line2": "2 66338  43.0004  40.6270 0000596 180.5282 179.5573 15.40809844  5458"}}, "geometry": {"type": "Point", "coordinates": [83.70244147317845, 37.39009898727366]}}, {"type": "Feature", "properties": {"norad_id": 66339, "name": "STARLINK-35443", "group": "last-30-days", "lat": -19.918317254384995, "lon": -128.87007613160543, "alt_km": 445.2492492149231, "timestamp": "2025-12-05T07:38:17.626014+00:00", "meta": {"OBJECT_NAME": "STARLINK-35443", "OBJECT_ID": "2025-253W", "EPOCH": "2025-12-04T18:00:02.000160", "MEAN_MOTION": 15.40671595, "ECCENTRICITY": 0.000203, "INCLINATION": 43.0006, "RA_OF_ASC_NODE": 31.5222, "ARG_OF_PERICENTER": 257.0045, "MEAN_ANOMALY": 37.5137, "EPHEMERIS_TYPE": 0, "CLASSIFICATION_TYPE": "U", "NORAD_CAT_ID": 66339, "ELEMENT_SET_NO": 999, "REV_AT_EPOCH": 569, "BSTAR": -0.00035923, "MEAN_MOTION_DOT": -0.00015266, "MEAN_MOTION_DDOT": 0}, "tle": {"line1": "1 66339U 25253W   25338.75002315 -.00015266  00000+0 -35923-3 0  9994", "line2": "2 66339  43.0006  31.5222 0002030 257.0045  37.5137 15.40671595  5694"}}, "geometry": {"type": "Point", "coordinates": [-128.87007613160543, -19.918317254384995]}}, {"type": "Feature", "properties": {"norad_id": 66340, "name": "STARLINK-35218", "group": "last-30-days", "lat": -40.43561256570467, "lon": -38.07099196822636, "alt_km": 416.6912870372289, "timestamp": "2025-12-05T07:38:17.626024+00:00", "meta": {"OBJECT_NAME": "STARLINK-35218", "OBJECT_ID": "2025-253X", "EPOCH": "2025-12-04T13:23:53.795328", "MEAN_MOTION": 15.50615991, "ECCENTRICITY": 0.0001192, "INCLINATION": 42.9998, "RA_OF_ASC_NODE": 32.5068, "ARG_OF_PERICENTER": 274.8538, "MEAN_ANOMALY": 85.2186, "EPHEMERIS_TYPE": 0, "CLASSIFICATION_TYPE": "U", "NORAD_CAT_ID": 66340, "ELEMENT_SET_NO": 999, "REV_AT_EPOCH": 566, "BSTAR": 0.0027172, "MEAN_MOTION_DOT": 0.00162634, "MEAN_MOTION_DDOT": 0}, "tle": {"line1": "1 66340U 25253X   25338.55826152  .00162634  00000+0  27172-2 0  9993", "line2": "2 66340  42.9998  32.5068 0001192 274.8538  85.2186 15.50615991  5665"}}, "geometry": {"type": "Point", "coordinates": [-38.07099196822636, -40.43561256570467]}}, {"type": "Feature", "properties": {"norad_id": 66341, "name": "STARLINK-35522", "group": "last-30-days", "lat": -33.796126497206686, "lon": -105.89638150549533, "alt_km": 448.59213527451993, "timestamp": "2025-12-05T07:38:17.626035+00:00", "meta": {"OBJECT_NAME": "STARLINK-35522", "OBJECT_ID": "2025-253Y", "EPOCH": "2025-12-04T18:00:02.000160", "MEAN_MOTION": 15.42571202, "ECCENTRICITY": 0.0001641, "INCLINATION": 43.0006, "RA_OF_ASC_NODE": 31.469, "ARG_OF_PERICENTER": 288.2071, "MEAN_ANOMALY": 29.821, "EPHEMERIS_TYPE": 0, "CLASSIFICATION_TYPE": "U", "NORAD_CAT_ID": 66341, "ELEMENT_SET_NO": 999, "REV_AT_EPOCH": 574, "BSTAR": -0.053738, "MEAN_MOTION_DOT": -0.02114521, "MEAN_MOTION_DDOT": 0}, "tle": {"line1": "1 66341U 25253Y   25338.75002315 -.02114521  00000+0 -53738-1 0  9995", "line2": "2 66341  43.0006  31.4690 0001641 288.2071  29.8210 15.42571202  5745"}}, "geometry": {"type": "Point", "coordinates": [-105.89638150549533, -33.796126497206686]}}, {"type": "Feature", "properties": {"norad_id": 66342, "name": "STARLINK-35535", "group": "last-30-days", "lat": 13.320804418063348, "lon": -166.3520964114292, "alt_km": 442.09523273335253, "timestamp": "2025-12-05T07:38:17.626046+00:00", "meta": {"OBJECT_NAME": "STARLINK-35535", "OBJECT_ID": "2025-253Z", "EPOCH": "2025-12-04T18:00:02.000160", "MEAN_MOTION": 15.40608656, "ECCENTRICITY": 0.0001674, "INCLINATION": 43.0004, "RA_OF_ASC_NODE": 31.6423, "ARG_OF_PERICENTER": 253.5187, "MEAN_ANOMALY": 351.2953, "EPHEMERIS_TYPE": 0, "CLASSIFICATION_TYPE": "U", "NORAD_CAT_ID": 66342, "ELEMENT_SET_NO": 999, "REV_AT_EPOCH": 564, "BSTAR": 0.0016707, "MEAN_MOTION_DOT": 0.00069915, "MEAN_MOTION_DDOT": 0}, "tle": {"line1": "1 66342U 25253Z   25338.75002315  .00069915  00000+0  16707-2 0  9994", "line2": "2 66342  43.0004  31.6423 0001674 253.5187 351.2953 15.40608656  5646"}}, "geometry": {"type": "Point", "coordinates": [-166.3520964114292, 13.320804418063348]}}, {"type": "Feature", "properties": {"norad_id": 66343, "name": "STARLINK-35467", "group": "last-30-days", "lat": 34.91888661354914, "lon": 159.94198358203545, "alt_km": 439.1641577375058, "timestamp": "2025-12-05T07:38:17.626056+00:00", "meta": {"OBJECT_NAME": "STARLINK-35467", "OBJECT_ID": "2025-253AA", "EPOCH": "2025-12-04T18:00:02.000160", "MEAN_MOTION": 15.4060745, "ECCENTRICITY": 0.0001402, "INCLINATION": 43.0005, "RA_OF_ASC_NODE": 31.7328, "ARG_OF_PERICENTER": 252.5197, "MEAN_ANOMALY": 314.9745, "EPHEMERIS_TYPE": 0, "CLASSIFICATION_TYPE": "U", "NORAD_CAT_ID": 66343, "ELEMENT_SET_NO": 999, "REV_AT_EPOCH": 564, "BSTAR": 0.0016967, "MEAN_MOTION_DOT": 0.00071013, "MEAN_MOTION_DDOT": 0}, "tle": {"line1": "1 66343U 25253AA  25338.75002315  .00071013  00000+0  16967-2 0  9995", "line2": "2 66343  43.0005  31.7328 0001402 252.5197 314.9745 15.40607450  5648"}}, "geometry": {"type": "Point", "coordinates": [159.94198358203545, 34.91888661354914]}}, {"type": "Feature", "properties": {"norad_id": 66344, "name": "STARLINK-35511", "group": "last-30-days", "lat": -34.02452582980442, "lon": -18.411211091069816, "alt_km": 416.99178636806846, "timestamp": "2025-12-05T07:38:17.626070+00:00", "meta": {"OBJECT_NAME": "STARLINK-35511", "OBJECT_ID": "2025-253AB", "EPOCH": "2025-12-04T10:13:55.829568", "MEAN_MOTION": 15.50597049, "ECCENTRICITY": 0.0001448, "INCLINATION": 43.0011, "RA_OF_ASC_NODE": 33.2328, "ARG_OF_PERICENTER": 274.0444, "MEAN_ANOMALY": 86.0251, "EPHEMERIS_TYPE": 0, "CLASSIFICATION_TYPE": "U", "NORAD_CAT_ID": 66344, "ELEMENT_SET_NO": 999, "REV_AT_EPOCH": 564, "BSTAR": 0.00014218, "MEAN_MOTION_DOT": 8.013e-05, "MEAN_MOTION_DDOT": 0}, "tle": {"line1": "1 66344U 25253AB  25338.42634062  .00008013  00000+0  14218-3 0  9998", "line2": "2 66344  43.0011  33.2328 0001448 274.0444  86.0251 15.50597049  5649"}}, "geometry": {"type": "Point", "coordinates": [-18.411211091069816, -34.02452582980442]}}, {"type": "Feature", "properties": {"norad_id": 66345, "name": "STARLINK-35440", "group": "last-30-days", "lat": -38.9176513402971, "lon": -91.79866866343079, "alt_km": 447.46235309215444, "timestamp": "2025-12-05T07:38:17.626095+00:00", "meta": {"OBJECT_NAME": "STARLINK-35440", "OBJECT_ID": "2025-253AC", "EPOCH": "2025-12-04T18:00:02.000160", "MEAN_MOTION": 15.40942767, "ECCENTRICITY": 9.95e-05, "INCLINATION": 43.0007, "RA_OF_ASC_NODE": 31.4299, "ARG_OF_PERICENTER": 251.7191, "MEAN_ANOMALY": 79.9758, "EPHEMERIS_TYPE": 0, "CLASSIFICATION_TYPE": "U", "NORAD_CAT_ID": 66345, "ELEMENT_SET_NO": 999, "REV_AT_EPOCH": 564, "BSTAR": -0.011614, "MEAN_MOTION_DOT": -0.00460957, "MEAN_MOTION_DDOT": 0}, "tle": {"line1": "1 66345U 25253AC  25338.75002315 -.00460957  00000+0 -11614-1 0  9991", "line2": "2 66345  43.0007  31.4299 0000995 251.7191  79.9758 15.40942767  5642"}}, "geometry": {"type": "Point", "coordinates": [-91.79866866343079, -38.9176513402971]}}, {"type": "Feature", "properties": {"norad_id": 66346, "name": "STARLINK-35482", "group": "last-30-days", "lat": -39.85225848179939, "lon": -35.55166818110619, "alt_km": 433.5375298009112, "timestamp": "2025-12-05T07:38:17.626109+00:00", "meta": {"OBJECT_NAME": "STARLINK-35482", "OBJECT_ID": "2025-253AD", "EPOCH": "2025-12-04T18:00:02.000160", "MEAN_MOTION": 15.47497865, "ECCENTRICITY": 0.0001662, "INCLINATION": 43.0007, "RA_OF_ASC_NODE": 31.3541, "ARG_OF_PERICENTER": 274.5439, "MEAN_ANOMALY": 88.6754, "EPHEMERIS_TYPE": 0, "CLASSIFICATION_TYPE": "U", "NORAD_CAT_ID": 66346, "ELEMENT_SET_NO": 999, "REV_AT_EPOCH": 574, "BSTAR": -0.044734, "MEAN_MOTION_DOT": -0.02090047, "MEAN_MOTION_DDOT": 0}, "tle": {"line1": "1 66346U 25253AD  25338.75002315 -.02090047  00000+0 -44734-1 0  9992", "line2": "2 66346  43.0007  31.3541 0001662 274.5439  88.6754 15.47497865  5747"}}, "geometry": {"type": "Point", "coordinates": [-35.55166818110619, -39.85225848179939]}}]}